    PK16P010  2021 06 10.7859  2.271513  0.289347  270.2668  319.5663   24.4475  20220629  15.0  4.0  P/2016 P1 (PANSTARRS)                                    MPC102099
    CK16P040  2016 10 17.8609  5.912655  0.986054  356.2334  320.7307   29.9023  20220629  10.5  4.0  C/2016 P4 (PANSTARRS)                                    MPEC 2022-M21
    CK16Q020  2021 05 12.2376  7.081990  1.002304   84.5502  322.3012  109.3868  20220629   6.0  4.0  C/2016 Q2 (PANSTARRS)                                    MPEC 2022-M21
    CK16Q040  2018 01 30.5327  7.092568  0.582794   99.5970  271.2968    7.2496  20220629   7.0  4.0  C/2016 Q4 (Kowalski)                                     MPC102955
    CK16R020  2018 05  9.0272  2.598143  0.994542   33.1043   80.5281   58.2950  20220629   7.0  4.0  C/2016 R2 (PANSTARRS)                                    MPEC 2021-N06
    PK16R040  2016 07 23.7958  2.791962  0.476381  174.1046  168.2613   10.8781  20220629  12.5  4.0  P/2016 R4 (Gibbs)                                        MPEC 2022-K19
    PK16S010  2017 03 16.2156  2.399403  0.710118  273.2705  227.6248   94.7182  20220629  12.0  4.0  P/2016 S1 (PANSTARRS)                                    MPC105543
    CK16T030  2017 09  6.7541  2.639446  0.979547  194.5772  271.6718   22.7086  20220629  10.5  4.0  C/2016 T3 (PANSTARRS)                                    MPC110082
    PK16W48M  2017 02 23.2002  1.768071  0.783517   36.1218   59.9232  117.5462  20220629  15.0  4.0  P/2016 WM48 (Lemmon)                                     MPC106345
    CK16X010  2019 04 27.7889  7.558208  0.994084  224.4724  256.3621   26.4555  20220629   6.0  4.0  C/2016 X1 (Lemmon)                                       MPEC 2021-P47
    CK17A05B  2018 02 14.3976  9.205958  0.996126   78.2863   42.6041   32.4597  20220629   5.5  4.0  C/2017 AB5 (PANSTARRS)                                   MPC114598
    CK17B030  2019 02  1.9164  3.927377  1.000686  284.8243    2.1748   54.1584  20220629   6.0  4.0  C/2017 B3 (LINEAR)                                       MPEC 2022-A21
    PK17B040  2017 01  5.8178  2.800894  0.364952   11.0197  121.4578   20.0584            14.5  4.0  P/2017 B4 (PANSTARRS)                                    MPC103847
    PK17D010  2027 02  1.1678  2.720230  0.436633    7.9604   82.1842   20.7627  20220629  14.0  4.0  P/2017 D1 (Fuls)                                         MPC104793
    CK17D020  2017 07 14.5460  2.499535  0.999843  334.6502  330.9564   31.2570  20220629  11.0  4.0  C/2017 D2 (Barros)                                       MPC112391
    PK17D040  2016 09  4.7453  2.804568  0.628603  212.1724  264.9393   10.5425  20220629  13.0  4.0  P/2017 D4 (PANSTARRS)                                    MPEC 2022-K19
    CK17E030  2017 06  7.1435  5.935009  1.005741  334.4423  220.8035   70.6644  20220629   6.5  4.0  C/2017 E3 (PANSTARRS)                                    MPEC 2021-P47
    CK17E050  2016 06 11.8052  1.781984  0.995452  306.9330  206.4962  122.6706  20220629  13.0  4.0  C/2017 E5 (Lemmon)                                       MPEC 2022-M21
    CK17F010  2017 11 28.4659  4.498390  1.001741   64.7190  158.7880  146.4622  20220629  10.5  4.0  C/2017 F1 (Lemmon)                                       MPC111769
    CK17F020  2017 11 25.8630  6.926199  1.002014  134.9205   38.7015   42.5530  20220629   7.5  4.0  C/2017 F2 (PANSTARRS)                                    MPC114598
    PK17G010  2016 04 26.8681  2.522962  0.653349  224.4007  249.6578    4.7809  20220629  13.5  4.0  P/2017 G1 (PANSTARRS)                                    MPC104794
    PK17G020  2017 06  9.6168  2.838999  0.647548  105.4600   79.8186   47.9555  20220629  13.0  4.0  P/2017 G2 (PANSTARRS)                                    MPC108595
    CK17K010  2018 03 17.9864  7.285800  1.003451    4.4331  225.7201  154.0212  20220629   7.0  4.0  C/2017 K1 (PANSTARRS)                                    MPC115882
    CK17K020  2022 12 19.6835  1.796939  1.000782  236.1968   88.2354   87.5612  20220629   1.5  4.0  C/2017 K2 (PANSTARRS)                                    MPEC 2022-M21
    PK17K030  2017 05 29.1772  2.348712  0.579420  253.4432  354.2884    4.2731  20220629  14.5  4.0  P/2017 K3 (Gasparovic)                                   MPEC 2021-N06
    CK17K040  2018 01  8.3629  2.659206  0.907293   15.3340  298.9025   16.6681  20220629  10.0  4.0  C/2017 K4 (ATLAS)                                        MPC114598
    CK17K050  2020 03 27.3644  7.683526  1.005404  172.0636  102.3784   82.2432  20220629   5.0  4.0  C/2017 K5 (PANSTARRS)                                    MPEC 2021-P47
    CK17K060  2018 01  3.9596  1.995249  0.998331  303.7893   84.9269   57.2251  20220629  11.0  4.0  C/2017 K6 (Jacques)                                      MPC114599
    CK17M040  2019 01 17.9696  3.253193  1.001388  167.6184   65.9420  105.6443  20220629   6.0  4.0  C/2017 M4 (ATLAS)                                        MPEC 2021-Y10
    CK17M050  2018 06  4.4325  6.002435  1.005335   92.8486  216.2891   15.8649  20220629   6.5  4.0  C/2017 M5 (TOTAS)                                        MPC118841
    CK17O010  2017 10 15.7619  1.490916  0.996012   20.8389   25.7182   39.9805  20220629  11.0  4.0  C/2017 O1 (ASASSN)                                       MPC114599
    PK17P010  2018 06 22.1650  5.449547  0.311008  122.6174  221.3738    7.6906  20220629  10.0  4.0  P/2017 P1 (PANSTARRS)                                    MPC114599
    CK17P020  2017 12  6.0865  2.474318  0.999035  132.4992  165.4549   50.0481  20220629  10.0  4.0  C/2017 P2 (PANSTARRS)                                    MPC114599
    CK17S020  2017 08 30.7232  3.614198  0.824916  306.1123   62.3284   12.6695  20220629  13.0  4.0  C/2017 S2 (PANSTARRS)                                    MPC108595
    CK17S030  2018 08 16.4913  0.205944  1.000088  255.8427  171.3209   99.2124  20220629  12.9  4.0  C/2017 S3 (PANSTARRS)                                    MPC114599
    CK17S060  2018 02 26.1253  1.550503  1.000872  134.9704  131.0891  152.8659  20220629  12.5  4.0  C/2017 S6 (Catalina)                                     MPC109591
    CK17S070  2017 05 23.6312  7.607070  0.998653  187.5091  262.7280  124.2242  20220629   7.0  4.0  C/2017 S7 (Lemmon)                                       MPC114599
    PK17S080  2022 09 16.3335  1.692715  0.390936  254.8196  191.5261   29.8586  20220629  16.0  4.0  P/2017 S8 (PANSTARRS)                                    MPC114599
    PK17S090  2023 02 27.3904  2.191045  0.305563  237.6285  146.2243   14.1433  20220629  17.0  4.0  P/2017 S9 (PANSTARRS)                                    MPC107050
    CK17T010  2018 02 20.6783  0.585702  0.999946   97.0198  102.4961   96.8941  20220629  14.5  4.0  C/2017 T1 (Heinze)                                       MPC114600
    CK17T020  2020 05  4.7951  1.614882  0.999079   92.9613   64.3937   57.2461  20220629   5.0  4.0  C/2017 T2 (PANSTARRS)                                    MPEC 2021-Y10
    CK17T030  2018 07 18.9651  0.824317  0.999309  246.8150  230.1892   88.2060  20220629  10.0  4.0  C/2017 T3 (ATLAS)                                        MPC114600
    PK17T13W  2018 06 21.3939  2.069784  0.709989  119.9161  322.2824   44.8495  20220629  15.0  2.0  P/2017 TW13 (Lemmon)                                     MPC115882
    CK17U020  2017 08 28.1893  6.716110  0.997529  147.8833  149.7113   95.3904  20220629   9.0  4.0  C/2017 U2 (Fuls)                                         MPC114600
    PK17U030  2019 04 12.6549  4.436995  0.099334  296.3980  165.1111   15.9188  20220629  11.0  4.0  P/2017 U3 (PANSTARRS)                                    MPEC 2022-K19
    CK17U040  2018 09 22.0945  7.721467  1.000255  158.9760  245.9202  158.2053  20220629   7.0  4.0  C/2017 U4 (PANSTARRS)                                    MPEC 2021-P47
    CK17U050  2017 12 19.2338  4.315749  0.744586  261.9915  163.0868   18.9791  20220629  12.0  4.0  C/2017 U5 (PANSTARRS)                                    MPC114600
    CK17U070  2019 09 14.8333  6.426812  1.001062  326.3877  276.2547  142.6033  20220629   8.3  2.0  C/2017 U7 (PANSTARRS)                                    MPEC 2022-M21
    CK17W020  2017 10 31.4474  3.945885  0.710247  168.9007  312.8234   98.2043  20220629  11.0  4.0  C/2017 W2 (Leonard)                                      MPC114600
    PK17W030  2018 02 27.3362  3.866949  0.506475  327.8390  210.2325   18.1669  20220629  10.5  4.0  P/2017 W3 (Gibbs)                                        MPC114601
    CK17X010  2018 06 14.2273  4.667066  0.849870  283.1959  251.1443   31.3250  20220629  10.0  4.0  C/2017 X1 (PANSTARRS)                                    MPEC 2021-R75
    CK17Y010  2017 08 31.6303  3.703680  0.997916  134.2429  307.4989   55.2559  20220629  11.5  4.0  C/2017 Y1 (PANSTARRS)                                    MPC117069
    CK17Y020  2020 11  5.0093  4.633011  1.001163  147.9291   66.0012  128.4266  20220629  15.0  4.0  C/2017 Y2 (PANSTARRS)                                    MPEC 2022-ED3
    PK17Y030  2018 02  9.3004  1.281644  0.869616   67.6043  153.8439   27.5580  20220629  16.5  4.0  P/2017 Y3 (Leonard)                                      MPC111770
    CK18A010  2017 10 21.3345  2.407659  0.904104   96.1868  336.6571   53.6123  20220629  12.5  4.0  C/2018 A1 (PANSTARRS)                                    MPC114601
    CK18A030  2019 01 11.5475  3.276951  0.991581   86.3549  194.2924  139.5362  20220629   8.5  4.0  C/2018 A3 (ATLAS)                                        MPEC 2021-P47
    CK18A040  2018 05 18.9483  2.392847  0.803613  355.9655   97.5991    3.1496  20220629  14.0  4.0  C/2018 A4 (PANSTARRS)                                    MPC114601
    PK18A050  2017 09 23.5043  2.685602  0.522988  359.4948   87.8003   23.5987  20220629  15.0  4.0  P/2018 A5 (PANSTARRS)                                    MPC109147
